{
  "type": "FeatureCollection",
  "features": [
    {
      "type": "Feature",
      "geometry": {
        "type": "Polygon",
        "coordinates": [
          [
            [
              58.15,
              43
            ],
            [
              61.75,
              43
            ],
            [
              61.25,
              46.55
            ],
            [
              59.05,
              46.85
            ],
            [
              58.15,
              43
            ]
          ]
        ]
      },
      "properties": {
        "id": "aral-sea-historical-coarse",
        "subjectType": "hydrology",
        "subjectId": "aral-sea",
        "validFromYear": 500,
        "validToYear": 1959,
        "snapshotYear": 1500,
        "names": {
          "ru": "Аральское море",
          "kk": "Арал теңізі",
          "en": "Aral Sea"
        },
        "verificationStatus": "needs_review",
        "scientificReadiness": "educational_reconstruction",
        "confidenceLevel": "low",
        "spatialPrecision": "generalized",
        "sourceIds": [],
        "claimIds": [],
        "reconstructionMethod": "coarse pre-shrinkage historical context; not metrically precise",
        "interpolationAllowed": false,
        "licenseStatus": "not_applicable",
        "reviewNotesPlaceholder": ""
      }
    },
    {
      "type": "Feature",
      "geometry": {
        "type": "Polygon",
        "coordinates": [
          [
            [
              58.2,
              43
            ],
            [
              61.7,
              43
            ],
            [
              61.2,
              46.5
            ],
            [
              59.1,
              46.8
            ],
            [
              58.2,
              43
            ]
          ]
        ]
      },
      "properties": {
        "id": "aral-sea-circa-1960-demo",
        "subjectType": "hydrology",
        "subjectId": "aral-sea",
        "validFromYear": 1960,
        "validToYear": 1984,
        "snapshotYear": 1960,
        "names": {
          "ru": "Аральское море",
          "kk": "Арал теңізі",
          "en": "Aral Sea"
        },
        "verificationStatus": "demo_only",
        "scientificReadiness": "demo_only",
        "confidenceLevel": "low",
        "spatialPrecision": "generalized",
        "sourceIds": [],
        "claimIds": [],
        "reconstructionMethod": "generalized outline; not metrically precise",
        "interpolationAllowed": false,
        "licenseStatus": "not_applicable",
        "reviewNotesPlaceholder": ""
      }
    },
    {
      "type": "Feature",
      "geometry": {
        "type": "Polygon",
        "coordinates": [
          [
            [
              58.4,
              43.2
            ],
            [
              61.4,
              43.2
            ],
            [
              61,
              46.3
            ],
            [
              59.2,
              46.5
            ],
            [
              58.4,
              43.2
            ]
          ]
        ]
      },
      "properties": {
        "id": "aral-sea-circa-1985-demo",
        "subjectType": "hydrology",
        "subjectId": "aral-sea",
        "validFromYear": 1985,
        "validToYear": 1999,
        "snapshotYear": 1985,
        "names": {
          "ru": "Аральское море",
          "kk": "Арал теңізі",
          "en": "Aral Sea"
        },
        "verificationStatus": "needs_review",
        "scientificReadiness": "educational_reconstruction",
        "confidenceLevel": "low",
        "spatialPrecision": "generalized",
        "sourceIds": [],
        "claimIds": [],
        "reconstructionMethod": "generalized outline; not metrically precise",
        "interpolationAllowed": false,
        "licenseStatus": "not_applicable",
        "reviewNotesPlaceholder": ""
      }
    },
    {
      "type": "Feature",
      "geometry": {
        "type": "Polygon",
        "coordinates": [
          [
            [
              58.8,
              43.5
            ],
            [
              60.9,
              43.5
            ],
            [
              60.7,
              45.8
            ],
            [
              59.4,
              46
            ],
            [
              58.8,
              43.5
            ]
          ]
        ]
      },
      "properties": {
        "id": "aral-sea-circa-2000-demo",
        "subjectType": "hydrology",
        "subjectId": "aral-sea",
        "validFromYear": 2000,
        "validToYear": 2009,
        "snapshotYear": 2000,
        "names": {
          "ru": "Аральское море",
          "kk": "Арал теңізі",
          "en": "Aral Sea"
        },
        "verificationStatus": "needs_review",
        "scientificReadiness": "educational_reconstruction",
        "confidenceLevel": "low",
        "spatialPrecision": "generalized",
        "sourceIds": [],
        "claimIds": [],
        "reconstructionMethod": "generalized outline; not metrically precise",
        "interpolationAllowed": false,
        "licenseStatus": "not_applicable",
        "reviewNotesPlaceholder": ""
      }
    },
    {
      "type": "Feature",
      "geometry": {
        "type": "Polygon",
        "coordinates": [
          [
            [
              59,
              43.8
            ],
            [
              60.5,
              43.8
            ],
            [
              60.4,
              45.4
            ],
            [
              59.5,
              45.6
            ],
            [
              59,
              43.8
            ]
          ]
        ]
      },
      "properties": {
        "id": "aral-sea-circa-2010-demo",
        "subjectType": "hydrology",
        "subjectId": "aral-sea",
        "validFromYear": 2010,
        "validToYear": 2014,
        "snapshotYear": 2010,
        "names": {
          "ru": "Аральское море",
          "kk": "Арал теңізі",
          "en": "Aral Sea"
        },
        "verificationStatus": "needs_review",
        "scientificReadiness": "educational_reconstruction",
        "confidenceLevel": "low",
        "spatialPrecision": "generalized",
        "sourceIds": [],
        "claimIds": [],
        "reconstructionMethod": "generalized outline; not metrically precise",
        "interpolationAllowed": false,
        "licenseStatus": "not_applicable",
        "reviewNotesPlaceholder": ""
      }
    },
    {
      "type": "Feature",
      "geometry": {
        "type": "Polygon",
        "coordinates": [
          [
            [
              59.1,
              44
            ],
            [
              60.3,
              44
            ],
            [
              60.2,
              45.2
            ],
            [
              59.6,
              45.3
            ],
            [
              59.1,
              44
            ]
          ]
        ]
      },
      "properties": {
        "id": "aral-sea-modern-demo",
        "subjectType": "hydrology",
        "subjectId": "aral-sea",
        "validFromYear": 2015,
        "validToYear": null,
        "snapshotYear": 2015,
        "names": {
          "ru": "Аральское море",
          "kk": "Арал теңізі",
          "en": "Aral Sea"
        },
        "verificationStatus": "needs_review",
        "scientificReadiness": "educational_reconstruction",
        "confidenceLevel": "low",
        "spatialPrecision": "generalized",
        "sourceIds": [],
        "claimIds": [],
        "reconstructionMethod": "generalized outline; not metrically precise",
        "interpolationAllowed": false,
        "licenseStatus": "not_applicable",
        "reviewNotesPlaceholder": ""
      }
    }
  ]
}
